[
    {
        "Altitude(m)": 605459.0309788899,
        "Argument of Periapsis(deg)": 0.0,
        "Eccentricity": 0.0,
        "Inclination(deg)": 60.0,
        "Latitude(deg)": 27.98822108325412,
        "Longitude(deg)": -167.20136217621354,
        "Mean Anomaly(deg)": 32.72730000000001,
        "RAAN(deg)": 275.0,
        "Satellite Name": "Test1 1212",
        "Satellite Number": 1212,
        "Semi-Major Axis(m)": 6980739.136638005,
        "Time(s)": 0
    },
    {
        "Altitude(m)": 605535.82182843,
        "Argument of Periapsis(deg)": 0.00010418945913296404,
        "Eccentricity": 0.0,
        "Inclination(deg)": 60.0,
        "Latitude(deg)": 28.50134996373371,
        "Longitude(deg)": -166.84441592404954,
        "Mean Anomaly(deg)": 33.34740614546182,
        "RAAN(deg)": 274.9995799508602,
        "Satellite Name": "Test1 1212",
        "Satellite Number": 1212,
        "Semi-Major Axis(m)": 6980739.136638005,
        "Time(s)": 10
    },
    {
        "Altitude(m)": 605614.3032882805,
        "Argument of Periapsis(deg)": 0.0002083789182659281,
        "Eccentricity": 0.0,
        "Inclination(deg)": 60.0,
        "Latitude(deg)": 29.013261312926865,
        "Longitude(deg)": -166.48360482513735,
        "Mean Anomaly(deg)": 33.967512290923665,
        "RAAN(deg)": 274.9991599017205,
        "Satellite Name": "Test1 1212",
        "Satellite Number": 1212,
        "Semi-Major Axis(m)": 6980739.136638005,
        "Time(s)": 20
    },
    {
        "Altitude(m)": 605694.4176663628,
        "Argument of Periapsis(deg)": 0.00031256837739889213,
        "Eccentricity": 0.0,
        "Inclination(deg)": 60.0,
        "Latitude(deg)": 29.52391785771504,
        "Longitude(deg)": -166.1188171234397,
        "Mean Anomaly(deg)": 34.58761843638547,
        "RAAN(deg)": 274.9987398525808,
        "Satellite Name": "Test1 1212",
        "Satellite Number": 1212,
        "Semi-Major Axis(m)": 6980739.136638005,
        "Time(s)": 30
    },
    {
        "Altitude(m)": 605776.1066612522,
        "Argument of Periapsis(deg)": 0.0004167578365318562,
        "Eccentricity": 0.0,
        "Inclination(deg)": 60.0,
        "Latitude(deg)": 30.033281328502312,
        "Longitude(deg)": -165.74993805662206,
        "Mean Anomaly(deg)": 35.20772458184732,
        "RAAN(deg)": 274.998319803441,
        "Satellite Name": "Test1 1212",
        "Satellite Number": 1212,
        "Semi-Major Axis(m)": 6980739.136638005,
        "Time(s)": 40
    },
    {
        "Altitude(m)": 605859.3113925213,
        "Argument of Periapsis(deg)": 0.0005209472956648203,
        "Eccentricity": 0.0,
        "Inclination(deg)": 60.0,
        "Latitude(deg)": 30.54131242048227,
        "Longitude(deg)": -165.37685079723786,
        "Mean Anomaly(deg)": 35.82783072730918,
        "RAAN(deg)": 274.9978997543013,
        "Satellite Name": "Test1 1212",
        "Satellite Number": 1212,
        "Semi-Major Axis(m)": 6980739.136638005,
        "Time(s)": 50
    },
    {
        "Altitude(m)": 605943.9724313142,
        "Argument of Periapsis(deg)": 0.0006251367547977843,
        "Eccentricity": 0.0,
        "Inclination(deg)": 60.0,
        "Latitude(deg)": 31.047970753545098,
        "Longitude(deg)": -164.99943588086603,
        "Mean Anomaly(deg)": 36.447936872770974,
        "RAAN(deg)": 274.99747970516154,
        "Satellite Name": "Test1 1212",
        "Satellite Number": 1212,
        "Semi-Major Axis(m)": 6980739.136638005,
        "Time(s)": 60
    },
    {
        "Altitude(m)": 606030.0298311671,
        "Argument of Periapsis(deg)": 0.0007293262139307483,
        "Eccentricity": 0.0,
        "Inclination(deg)": 60.0,
        "Latitude(deg)": 31.553214830785578,
        "Longitude(deg)": -164.61757063423684,
        "Mean Anomaly(deg)": 37.06804301823283,
        "RAAN(deg)": 274.9970596560218,
        "Satellite Name": "Test1 1212",
        "Satellite Number": 1212,
        "Semi-Major Axis(m)": 6980739.136638005,
        "Time(s)": 70
    },
    {
        "Altitude(m)": 606117.4231589949,
        "Argument of Periapsis(deg)": 0.0008335156730637124,
        "Eccentricity": 0.0,
        "Inclination(deg)": 60.0,
        "Latitude(deg)": 32.05700199557538,
        "Longitude(deg)": -164.23113011640456,
        "Mean Anomaly(deg)": 37.68814916369463,
        "RAAN(deg)": 274.99663960688207,
        "Satellite Name": "Test1 1212",
        "Satellite Number": 1212,
        "Semi-Major Axis(m)": 6980739.136638005,
        "Time(s)": 80
    },
    {
        "Altitude(m)": 606206.0915262952,
        "Argument of Periapsis(deg)": 0.0009377051321966765,
        "Eccentricity": 0.0,
        "Inclination(deg)": 60.0,
        "Latitude(deg)": 32.5592883871549,
        "Longitude(deg)": -163.8399865474276,
        "Mean Anomaly(deg)": 38.308255309156486,
        "RAAN(deg)": 274.9962195577423,
        "Satellite Name": "Test1 1212",
        "Satellite Number": 1212,
        "Semi-Major Axis(m)": 6980739.136638005,
        "Time(s)": 90
    },
    {
        "Altitude(m)": 606295.9736204956,
        "Argument of Periapsis(deg)": 0.0010418945913296407,
        "Eccentricity": 0.0,
        "Inclination(deg)": 60.0,
        "Latitude(deg)": 33.06002889470773,
        "Longitude(deg)": -163.4440087376638,
        "Mean Anomaly(deg)": 38.92836145461828,
        "RAAN(deg)": 274.99579950860254,
        "Satellite Name": "Test1 1212",
        "Satellite Number": 1212,
        "Semi-Major Axis(m)": 6980739.136638005,
        "Time(s)": 100
    },
    {
        "Altitude(m)": 606387.0077364834,
        "Argument of Periapsis(deg)": 0.0011460840504626045,
        "Eccentricity": 0.0,
        "Inclination(deg)": 60.0,
        "Latitude(deg)": 33.559177109885056,
        "Longitude(deg)": -163.0430630308153,
        "Mean Anomaly(deg)": 39.54846760008014,
        "RAAN(deg)": 274.99537945946287,
        "Satellite Name": "Test1 1212",
        "Satellite Number": 1212,
        "Semi-Major Axis(m)": 6980739.136638005,
        "Time(s)": 110
    },
    {
        "Altitude(m)": 606479.1318082593,
        "Argument of Periapsis(deg)": 0.0012502735095955685,
        "Eccentricity": 0.0,
        "Inclination(deg)": 60.0,
        "Latitude(deg)": 34.056685277736904,
        "Longitude(deg)": -162.6370127352698,
        "Mean Anomaly(deg)": 40.16857374554194,
        "RAAN(deg)": 274.9949594103231,
        "Satellite Name": "Test1 1212",
        "Satellite Number": 1212,
        "Semi-Major Axis(m)": 6980739.136638005,
        "Time(s)": 120
    },
    {
        "Altitude(m)": 606572.2834407067,
        "Argument of Periapsis(deg)": 0.0013544629687285324,
        "Eccentricity": 0.0,
        "Inclination(deg)": 60.0,
        "Latitude(deg)": 34.55250424602131,
        "Longitude(deg)": -162.2257175569352,
        "Mean Anomaly(deg)": 40.788679891003795,
        "RAAN(deg)": 274.99453936118334,
        "Satellite Name": "Test1 1212",
        "Satellite Number": 1212,
        "Semi-Major Axis(m)": 6980739.136638005,
        "Time(s)": 130
    },
    {
        "Altitude(m)": 606666.3999414864,
        "Argument of Periapsis(deg)": 0.0014586524278614966,
        "Eccentricity": 0.0,
        "Inclination(deg)": 60.0,
        "Latitude(deg)": 35.04658341286131,
        "Longitude(deg)": -161.80903454680512,
        "Mean Anomaly(deg)": 41.40878603646564,
        "RAAN(deg)": 274.9941193120436,
        "Satellite Name": "Test1 1212",
        "Satellite Number": 1212,
        "Semi-Major Axis(m)": 6980739.136638005,
        "Time(s)": 140
    },
    {
        "Altitude(m)": 606761.4183530016,
        "Argument of Periapsis(deg)": 0.0015628418869944607,
        "Eccentricity": 0.0,
        "Inclination(deg)": 60.0,
        "Latitude(deg)": 35.53887067271783,
        "Longitude(deg)": -161.3868175379081,
        "Mean Anomaly(deg)": 42.02889218192745,
        "RAAN(deg)": 274.9936992629039,
        "Satellite Name": "Test1 1212",
        "Satellite Number": 1212,
        "Semi-Major Axis(m)": 6980739.136638005,
        "Time(s)": 150
    },
    {
        "Altitude(m)": 606857.2754844683,
        "Argument of Periapsis(deg)": 0.0016670313461274247,
        "Eccentricity": 0.0,
        "Inclination(deg)": 60.0,
        "Latitude(deg)": 36.029312360655716,
        "Longitude(deg)": -160.95891658495964,
        "Mean Anomaly(deg)": 42.6489983273893,
        "RAAN(deg)": 274.99327921376414,
        "Satellite Name": "Test1 1212",
        "Satellite Number": 1212,
        "Semi-Major Axis(m)": 6980739.136638005,
        "Time(s)": 160
    },
    {
        "Altitude(m)": 606953.9079440096,
        "Argument of Periapsis(deg)": 0.0017712208052603888,
        "Eccentricity": 0.0,
        "Inclination(deg)": 60.0,
        "Latitude(deg)": 36.517853194885674,
        "Longitude(deg)": -160.52517892007816,
        "Mean Anomaly(deg)": 43.269104472851105,
        "RAAN(deg)": 274.99285916462435,
        "Satellite Name": "Test1 1212",
        "Satellite Number": 1212,
        "Semi-Major Axis(m)": 6980739.136638005,
        "Time(s)": 170
    },
    {
        "Altitude(m)": 607051.2521708254,
        "Argument of Periapsis(deg)": 0.001875410264393353,
        "Eccentricity": 0.0,
        "Inclination(deg)": 60.0,
        "Latitude(deg)": 37.00443621756196,
        "Longitude(deg)": -160.0854483993608,
        "Mean Anomaly(deg)": 43.88921061831296,
        "RAAN(deg)": 274.9924391154846,
        "Satellite Name": "Test1 1212",
        "Satellite Number": 1212,
        "Semi-Major Axis(m)": 6980739.136638005,
        "Time(s)": 180
    },
    {
        "Altitude(m)": 607149.2444673564,
        "Argument of Periapsis(deg)": 0.0019795997235263173,
        "Eccentricity": 0.0,
        "Inclination(deg)": 60.0,
        "Latitude(deg)": 37.489002733828315,
        "Longitude(deg)": -159.63956495378633,
        "Mean Anomaly(deg)": 44.50931676377476,
        "RAAN(deg)": 274.99201906634494,
        "Satellite Name": "Test1 1212",
        "Satellite Number": 1212,
        "Semi-Major Axis(m)": 6980739.136638005,
        "Time(s)": 190
    }
]